[{"OBJECT_NAME":"STARLINK-5886","OBJECT_ID":"2023-058AK","EPOCH":"2026-03-09T23:38:35.364192","MEAN_MOTION":15.05648558,"ECCENTRICITY":0.00023097,"INCLINATION":97.6046,"RA_OF_ASC_NODE":71.5502,"ARG_OF_PERICENTER":89.8875,"MEAN_ANOMALY":270.2617,"EPHEMERIS_TYPE":0,"CLASSIFICATION_TYPE":"U","NORAD_CAT_ID":56350,"ELEMENT_SET_NO":999,"REV_AT_EPOCH":15824,"BSTAR":9.494342e-6,"MEAN_MOTION_DOT":7.6e-7,"MEAN_MOTION_DDOT":0},{"OBJECT_NAME":"CZ-6A R\/B","OBJECT_ID":"2023-168B","EPOCH":"2026-03-09T21:13:08.722272","MEAN_MOTION":15.16100791,"ECCENTRICITY":0.00607667,"INCLINATION":97.7542,"RA_OF_ASC_NODE":104.7688,"ARG_OF_PERICENTER":339.2379,"MEAN_ANOMALY":20.6386,"EPHEMERIS_TYPE":0,"CLASSIFICATION_TYPE":"U","NORAD_CAT_ID":58200,"ELEMENT_SET_NO":999,"REV_AT_EPOCH":12979,"BSTAR":0.00029693841,"MEAN_MOTION_DOT":5.919e-5,"MEAN_MOTION_DDOT":0}]
